[
  {
    "source_id": "538ABB65",
    "occurred_at": "MAY 2ND 2026",
    "headline": "INCIDENT: DELTA A339 OVER ATLANTIC ON MAY 2ND 2026, ENGINE PROBLEM",
    "url": "HTTPS://AVHERALD.COM/H?ARTICLE=538ABB65&OPT=0",
    "source": "AVHERALD",
    "meta": {
      "narrative": "A DELTA AIRLINES AIRBUS A330-900, REGISTRATION N429DX PERFORMING FLIGHT DL-59 FROM LONDON HEATHROW,EN (UK) TO BOSTON,MA (USA), WAS ENROUTE OVER THE ATLANTIC OCEAN ABOUT 380NM EAST OF ST. JOHN'S, NL (CANADA) WHEN THE CREW DECIDED TO TURN AROUND AND RETURN TO LONDON DUE TO AN ENGINE PROBLEM.",
      "metar": "EGLL 021650Z 24008KT 9999 FEW045 14/06 Q1012 NOSIG=",
      "aircraft_type": "A339",
      "operator": "DELTA",
      "severity": "INCIDENT",
      "departure": "LHR",
      "destination": "BOS"
    }
  },
  {
    "source_id": "538A2C0A",
    "occurred_at": "APR 30TH 2026",
    "headline": "INCIDENT: UNITED B752 NEAR NEWARK ON APR 30TH 2026, PITOT HEATER NOT WORKING",
    "url": "HTTPS://AVHERALD.COM/H?ARTICLE=538A2C0A&OPT=0",
    "source": "AVHERALD",
    "meta": {
      "narrative": "A UNITED AIRLINES BOEING 757-200, REGISTRATION N14102 PERFORMING FLIGHT UA-188 FROM NEWARK,NJ (USA) TO LISBON (PORTUGAL), WAS CLIMBING OUT OF NEWARK WHEN THE CREW STOPPED THE CLIMB AT 5000 FEET REPORTING A PITOT HEATER WAS NOT WORKING.",
      "metar": "KEWR 302351Z 16007KT 10SM CLR 16/04 Q3004 NOSIG",
      "aircraft_type": "B752",
      "operator": "UNITED",
      "severity": "INCIDENT",
      "departure": "EWR",
      "destination": "LIS"
    }
  }
]
